{
"type": "FeatureCollection",
"name": "PT",
"crs": { "type": "name", "properties": { "name": "urn:ogc:def:crs:OGC:1.3:CRS84" } },
"features": [
{"type":"Feature","properties":{"field_3":"PT. PALMINA UTAMA","begin":2216,"end":2338,"Acreage":3711923},"geometry":{"type":"Polygon","coordinates":[[[114.2387,-2.55768],[114.2387,-2.56152],[114.2455,-2.58283],[114.2573,-2.59699],[114.2615,-2.61658],[114.2575,-2.62091],[114.2477,-2.61829],[114.2441,-2.61981],[114.2445,-2.62482],[114.2513,-2.63092],[114.2573,-2.64618],[114.2643,-2.64789],[114.2735,-2.64459],[114.2843,-2.64758],[114.2839,-2.65741],[114.2709,-2.64948],[114.2429,-2.64948],[114.2307,-2.64221],[114.2253,-2.63538],[114.2239,-2.63062],[114.2245,-2.62653],[114.2345,-2.61969],[114.2343,-2.61322],[114.2295,-2.60791],[114.2201,-2.6048],[114.2201,-2.60132],[114.2277,-2.59039],[114.2275,-2.58521],[114.2175,-2.57861],[114.2231,-2.56738],[114.2221,-2.54871],[114.2151,-2.53082],[114.2033,-2.52432],[114.2034,-2.52173],[114.2145,-2.52173],[114.2419,-2.49658],[114.2619,-2.49658],[114.2599,-2.50269],[114.2599,-2.5213],[114.2617,-2.52649],[114.2609,-2.53943],[114.2515,-2.54999],[114.2387,-2.55768]]]}},
{"type":"Feature","properties":{"field_3":"PT. PALMINA UTAMA","begin":2216,"end":2338,"Acreage":3711923},"geometry":{"type":"Polygon","coordinates":[[[114.2205,-2.5014],[114.2123,-2.51471],[114.2045,-2.51471],[114.2011,-2.50311],[114.2011,-2.49689],[114.225,-2.49694],[114.225,-2.49836],[114.2205,-2.5014]]]}},
{"type":"Feature","properties":{"field_3":"PT. PALMINA UTAMA","begin":2216,"end":2338,"Acreage":3711923},"geometry":{"type":"Polygon","coordinates":[[[114.1961,-2.5542],[114.1961,-2.53058],[114.2051,-2.53528],[114.2095,-2.54211],[114.2141,-2.55408],[114.2157,-2.56348],[114.2142,-2.56944],[114.2115,-2.56944],[114.2083,-2.5636],[114.2037,-2.55908],[114.1985,-2.55908],[114.1961,-2.5542]]]}}
]
}