{
"type": "FeatureCollection",
"name": "PT",
"crs": { "type": "name", "properties": { "name": "urn:ogc:def:crs:OGC:1.3:CRS84" } },
"features": [
{"type":"Feature","properties":{"field_3":"PT. PALMINA UTAMA","begin":2216,"end":2338,"Acreage":3711923},"geometry":{"type":"Polygon","coordinates":[[[111.7836,0.049373],[111.7819,0.049823],[111.7801,0.05004],[111.7779,0.050164],[111.7752,0.049969],[111.7752,0.075483],[111.7041,0.115768],[111.594,0.115802],[111.594,0.143569],[111.6237,0.143058],[111.6242,0.154166],[111.8023,0.203894],[111.8024,0.033443],[111.7994,0.034458],[111.7964,0.037079],[111.7951,0.038897],[111.7917,0.044734],[111.788,0.047645],[111.7836,0.049373]]]}}
]
}
