{
"type": "FeatureCollection",
"name": "PT",
"crs": { "type": "name", "properties": { "name": "urn:ogc:def:crs:OGC:1.3:CRS84" } },
"features": [
{"type":"Feature","properties":{"field_3":"PT. PALMINA UTAMA","begin":2216,"end":2338,"Acreage":3711923},"geometry":{"type":"Polygon","coordinates":[[[111.5183,-0.08921],[111.5211,-0.08923],[111.5237,-0.08924],[111.5237,-0.09006],[111.5239,-0.0915],[111.5245,-0.09913],[111.5245,-0.09919],[111.5239,-0.1002],[111.523,-0.10162],[111.523,-0.10168],[111.5211,-0.1047],[111.5211,-0.10471],[111.5189,-0.10832],[111.5183,-0.10921],[111.5163,-0.1126],[111.5156,-0.11258],[111.5128,-0.11248],[111.5101,-0.11238],[111.5073,-0.11228],[111.5045,-0.11219],[111.5024,-0.11211],[111.5024,-0.11038],[111.5023,-0.10832],[111.5023,-0.09919],[111.5023,-0.09006],[111.5023,-0.08915],[111.5024,-0.08915],[111.5045,-0.08916],[111.5073,-0.08917],[111.5078,-0.08917],[111.5101,-0.08918],[111.5128,-0.08919],[111.5156,-0.0892],[111.5183,-0.08921]]]}},
{"type":"Feature","properties":{"field_3":"PT. PALMINA UTAMA","begin":2216,"end":2338,"Acreage":3711923},"geometry":{"type":"Polygon","coordinates":[[[111.407,0.012178],[111.407,0.012287],[111.407,0.012316],[111.407,0.012357],[111.407,0.012442],[111.407,0.012568],[111.407,0.012578],[111.4069,0.012728],[111.4069,0.012911],[111.4069,0.012928],[111.4069,0.012935],[111.4069,0.012945],[111.4071,0.012945],[111.408,0.012945],[111.4104,0.012945],[111.4104,0.013074],[111.4104,0.013152],[111.4105,0.013162],[111.4107,0.013136],[111.4109,0.013126],[111.4112,0.013112],[111.4113,0.01311],[111.412,0.01311],[111.4132,0.013116],[111.4137,0.013115],[111.414,0.013122],[111.414,0.013121],[111.4141,0.013121],[111.4141,0.01312],[111.4146,0.013098],[111.4151,0.01308],[111.4151,0.012945],[111.4163,0.012945],[111.419,0.012945],[111.4218,0.012945],[111.4245,0.012945],[111.4273,0.012945],[111.4279,0.012945],[111.428,0.012945],[111.4281,0.012945],[111.4281,0.019478],[111.4281,0.028607],[111.4281,0.031176],[111.4299,0.028176],[111.4326,0.023388],[111.4354,0.0186],[111.439,0.012279],[111.4481,0.012092],[111.4481,0.010351],[111.4481,0.001223],[111.4481,-0.00188],[111.448,-0.00791],[111.448,-0.01631],[111.4479,-0.01701],[111.4471,-0.02528],[111.439,-0.03009],[111.4344,-0.03252],[111.4267,-0.03407],[111.4188,-0.03738],[111.4062,-0.03694],[111.4023,-0.03951],[111.3998,-0.04116],[111.3959,-0.04155],[111.396,-0.04141],[111.396,-0.04129],[111.3963,-0.04055],[111.3963,-0.04053],[111.3963,-0.04052],[111.3964,-0.04036],[111.3972,-0.03875],[111.3972,-0.03873],[111.3978,-0.03791],[111.3978,-0.0379],[111.3978,-0.03789],[111.3982,-0.03725],[111.3986,-0.03624],[111.3988,-0.03525],[111.3988,-0.03456],[111.3985,-0.03204],[111.398,-0.03034],[111.3978,-0.02927],[111.3978,-0.02925],[111.3974,-0.02707],[111.3974,-0.02706],[111.3974,-0.02704],[111.3974,-0.02541],[111.3974,-0.02462],[111.3983,-0.02299],[111.3983,-0.02298],[111.3989,-0.02223],[111.3995,-0.02122],[111.4005,-0.01929],[111.401,-0.01797],[111.401,-0.01795],[111.401,-0.01792],[111.4015,-0.01687],[111.4015,-0.01684],[111.4015,-0.01681],[111.4021,-0.0156],[111.4026,-0.01409],[111.4028,-0.01338],[111.4028,-0.01325],[111.4034,-0.01249],[111.4041,-0.01224],[111.4049,-0.01212],[111.4049,-0.01211],[111.4058,-0.01202],[111.4064,-0.01157],[111.4068,-0.01098],[111.407,-0.01021],[111.407,-0.01019],[111.407,-0.01018],[111.4073,-0.00966],[111.4073,-0.00965],[111.4073,-0.00963],[111.4077,-0.00889],[111.4083,-0.00821],[111.4087,-0.0076],[111.4087,-0.00759],[111.4091,-0.00713],[111.4097,-0.00695],[111.41,-0.00684],[111.4103,-0.00677],[111.4105,-0.00673],[111.4107,-0.00666],[111.4107,-0.00665],[111.4112,-0.00654],[111.4115,-0.00612],[111.4116,-0.00608],[111.4116,-0.00609],[111.4117,-0.00597],[111.4112,-0.00316],[111.4112,-0.00314],[111.4112,-0.00252],[111.4111,-0.00196],[111.4109,-0.00082],[111.411,-0.00081],[111.4109,-0.0007],[111.4109,-0.0005],[111.4107,0.000172],[111.4107,0.000176],[111.4107,0.000193],[111.4107,0.000288],[111.4106,0.000486],[111.4105,0.000922],[111.4104,0.001089],[111.4101,0.001738],[111.4101,0.001729],[111.4101,0.001464],[111.41,0.001768],[111.4098,0.002291],[111.4098,0.002506],[111.4098,0.002691],[111.4098,0.0027],[111.4098,0.002819],[111.4098,0.002846],[111.4098,0.002871],[111.4098,0.003105],[111.4098,0.003288],[111.4099,0.003655],[111.4099,0.004126],[111.4099,0.004359],[111.4099,0.004447],[111.4099,0.004451],[111.4098,0.004625],[111.4098,0.004734],[111.4097,0.00494],[111.408377739905617,0.007525246460407],[111.408,0.007767],[111.4079,0.007805],[111.4079,0.00782],[111.4079,0.007826],[111.4077,0.007889],[111.4076,0.008024],[111.4072,0.008236],[111.4071,0.0084],[111.407,0.008658],[111.4069,0.008689],[111.4069,0.008702],[111.4068,0.009067],[111.4067,0.00944],[111.4067,0.009441],[111.4067,0.009446],[111.4067,0.009768],[111.4067,0.010153],[111.4067,0.010162],[111.4067,0.010185],[111.4068,0.01061],[111.4068,0.01111],[111.4068,0.011117],[111.4068,0.011139],[111.4069,0.011389],[111.4069,0.011395],[111.4069,0.011401],[111.4069,0.011526],[111.407,0.011233],[111.407,0.011238],[111.407,0.012145],[111.407,0.012178]]]}}
]
}